SatCatId,ObjectName,LaunchYear,OrbitalPeriod,LaunchMass,StatusCode,Inclination,Status,UcsData,OrbitClassEstimated,LaunchSiteCountry,Owner,UseType,Purpose,LaunchVehicleClass,TLE1,TLE2,MeanMotion,Eccentricity,OrbitClass
57979,STARLINK-30508,2023,95.84,-1.0,+,43.0,Active,0,LEO,USA,USA,Unknown,Unknown,Unknown,1 57979U 23151R   24232.27650096  .00000466  00000+0  49563-4 0  9993,2 57979  43.0018 195.2119 0000796 261.5864  98.4888 15.02540758 50228,15.02540758,7.96e-05,LEO
57980,STARLINK-30504,2023,95.53,-1.0,P,43.01,Active,0,LEO,USA,USA,Unknown,Unknown,Unknown,1 57980U 23151S   24232.28770477  .00019322  00000+0  12662-2 0  9991,2 57980  43.0055 190.2415 0002782 147.1555 212.9462 15.07381428 50287,15.07381428,0.0002782,LEO
57981,STARLINK-30510,2023,95.84,-1.0,+,43.0,Active,0,LEO,USA,USA,Unknown,Unknown,Unknown,1 57981U 23151T   24232.27318088 -.00002465  00000+0 -16754-3 0  9996,2 57981  43.0036 195.1881 0001250 273.8357  86.2342 15.02515778 50229,15.02515778,0.000125,LEO
57982,STARLINK-30507,2023,95.84,-1.0,+,43.0,Active,0,LEO,USA,USA,Unknown,Unknown,Unknown,1 57982U 23151U   24232.26986004 -.00003473  00000+0 -24225-3 0  9997,2 57982  43.0007 195.1673 0002526 263.9582  96.0972 15.02509397 50222,15.02509397,0.0002526,LEO
57983,STARLINK-30515,2023,95.84,-1.0,+,43.0,Active,0,LEO,USA,USA,Unknown,Unknown,Unknown,1 57983U 23151V   24232.39946752 -.00000743  00000+0 -39904-4 0  9996,2 57983  43.0007 194.4149 0001293 269.7344  90.3351 15.02532703 50240,15.02532703,0.0001293,LEO
57984,STARLINK-30516,2023,95.84,-1.0,+,43.0,Active,0,LEO,USA,USA,Unknown,Unknown,Unknown,1 57984U 23151W   24232.26318504  .00001048  00000+0  92664-4 0  9990,2 57984  43.0009 195.1120 0001698 266.0395  94.0253 15.02530861 50228,15.02530861,0.0001698,LEO
57985,STARLINK-30519,2023,95.84,-1.0,+,43.0,Active,0,LEO,USA,USA,Unknown,Unknown,Unknown,1 57985U 23151X   24232.19338172  .00003550  00000+0  27783-3 0  9995,2 57985  43.0015 195.4471 0001307 263.2592  96.8101 15.02523287 50151,15.02523287,0.0001307,LEO
57986,YAOGAN-39 03A,2023,94.54,-1.0,+,35.0,Active,0,LEO,PRC,China,Unknown,Unknown,Unknown,1 57986U 23152A   24232.48002951  .00002606  00000+0  10888-3 0  9991,2 57986  34.9984 145.5188 0008479 272.2088  87.7656 15.23216539 48731,15.23216539,0.0008479,LEO
57988,YAOGAN-39 03B,2023,94.53,-1.0,+,34.99,Active,0,LEO,PRC,China,Unknown,Unknown,Unknown,1 57988U 23152C   24232.47911913  .00025522  00000+0  10485-2 0  9993,2 57988  34.9938 145.4727 0005853 214.9915 145.0415 15.23267896 48738,15.23267896,0.0005853,LEO
57990,YAOGAN-39 03C,2023,94.54,-1.0,+,34.99,Active,0,LEO,PRC,China,Unknown,Unknown,Unknown,1 57990U 23152E   24232.47534255  .00033623  00000+0  13811-2 0  9993,2 57990  34.9933 145.4397 0005840 276.1986  83.8063 15.23224265 48701,15.23224265,0.000584,LEO
57991,STARLINK-30537,2023,95.84,-1.0,+,43.0,Active,0,LEO,USA,USA,Unknown,Unknown,Unknown,1 57991U 23153A   24232.37787133 -.00002324  00000+0 -15704-3 0  9999,2 57991  43.0021 271.7384 0001517 264.9771  95.0898 15.02532500 49437,15.025325,0.0001517,LEO
57992,STARLINK-30534,2023,95.84,-1.0,+,43.0,Active,0,LEO,USA,USA,Unknown,Unknown,Unknown,1 57992U 23153B   24232.52081817  .00000164  00000+0  27186-4 0  9999,2 57992  43.0006 271.0827 0001304 267.3196  92.7497 15.02525123 49452,15.02525123,0.0001304,LEO
57993,STARLINK-30536,2023,95.84,-1.0,+,43.0,Active,0,LEO,USA,USA,Unknown,Unknown,Unknown,1 57993U 23153C   24232.50415307  .00016036  00000+0  11980-2 0  9991,2 57993  43.0009 270.9649 0001507 270.2089  89.8581 15.02581251 49551,15.02581251,0.0001507,LEO
57994,STARLINK-30538,2023,95.84,-1.0,+,43.0,Active,0,LEO,USA,USA,Unknown,Unknown,Unknown,1 57994U 23153D   24232.09864174  .00001195  00000+0  10354-3 0  9991,2 57994  43.0017 273.0765 0000987 266.7367  93.3363 15.02537041 49392,15.02537041,9.87e-05,LEO
57995,STARLINK-30517,2023,95.84,-1.0,+,43.0,Active,0,LEO,USA,USA,Unknown,Unknown,Unknown,1 57995U 23153E   24232.16178613  .00003412  00000+0  26753-3 0  9990,2 57995  43.0027 272.6916 0001817 264.7485  95.3150 15.02541391 49501,15.02541391,0.0001817,LEO
57996,STARLINK-30543,2023,93.47,-1.0,P,43.0,Active,0,LEO,USA,USA,Unknown,Unknown,Unknown,1 57996U 23153F   24232.40334322 -.00004832  00000+0 -10863-3 0  9993,2 57996  43.0021 118.2560 0001313 258.3782 101.6927 15.40657203 51290,15.40657203,0.0001313,LEO
57997,STARLINK-30523,2023,95.84,-1.0,+,43.01,Active,0,LEO,USA,USA,Unknown,Unknown,Unknown,1 57997U 23153G   24232.50084159 -.00000961  00000+0 -56097-4 0  9994,2 57997  43.0058 270.9367 0001775 258.2733 101.7910 15.02529472 49552,15.02529472,0.0001775,LEO
57998,STARLINK-30531,2023,95.84,-1.0,+,43.0,Active,0,LEO,USA,USA,Unknown,Unknown,Unknown,1 57998U 23153H   24232.46421001 -.00001405  00000+0 -88935-4 0  9991,2 57998  43.0031 270.6677 0001682 269.9981  90.0668 15.02531575 49553,15.02531575,0.0001682,LEO
57999,STARLINK-30552,2023,95.84,-1.0,+,43.0,Active,0,LEO,USA,USA,Unknown,Unknown,Unknown,1 57999U 23153J   24232.55399345 -.00003621  00000+0 -25302-3 0  9997,2 57999  43.0025 270.4766 0001116 255.5967 104.4752 15.02553470 49564,15.0255347,0.0001116,LEO
58000,STARLINK-30545,2023,95.84,-1.0,+,43.0,Active,0,LEO,USA,USA,Unknown,Unknown,Unknown,1 58000U 23153K   24232.55067108 -.00000338  00000+0 -99498-5 0  9991,2 58000  43.0022 270.4482 0000763 283.5474  76.5283 15.02531583 49560,15.02531583,7.63e-05,LEO
58001,STARLINK-30535,2023,95.84,-1.0,+,43.0,Active,0,LEO,USA,USA,Unknown,Unknown,Unknown,1 58001U 23153L   24232.41438099  .00001496  00000+0  12577-3 0  9993,2 58001  43.0022 271.1459 0001416 268.6272  91.4408 15.02537776 49542,15.02537776,0.0001416,LEO
58002,STARLINK-30540,2023,95.84,-1.0,+,43.0,Active,0,LEO,USA,USA,Unknown,Unknown,Unknown,1 58002U 23153M   24232.38452864 -.00008639  00000+0 -62546-3 0  9995,2 58002  43.0022 271.7661 0001637 268.7459  91.3196 15.02523358 49439,15.02523358,0.0001637,LEO
58003,STARLINK-30546,2023,95.84,-1.0,+,43.0,Active,0,LEO,USA,USA,Unknown,Unknown,Unknown,1 58003U 23153N   24232.41103485  .00006768  00000+0  51530-3 0  9992,2 58003  43.0009 271.1156 0001186 284.2597  75.8113 15.02559383 49548,15.02559383,0.0001186,LEO
58004,STARLINK-30539,2023,95.84,-1.0,+,43.0,Active,0,LEO,USA,USA,Unknown,Unknown,Unknown,1 58004U 23153P   24232.40773282  .00000033  00000+0  17496-4 0  9993,2 58004  43.0002 271.0936 0001859 266.0472  94.0158 15.02515672 49549,15.02515672,0.0001859,LEO
58005,STARLINK-30530,2023,95.84,-1.0,+,42.99,Active,0,LEO,USA,USA,Unknown,Unknown,Unknown,1 58005U 23153Q   24232.46756530  .00012291  00000+0  92364-3 0  9992,2 58005  42.9970 270.6861 0001196  14.3365 345.7511 15.02523330 49553,15.0252333,0.0001196,LEO
58006,STARLINK-30526,2023,95.84,-1.0,+,43.0,Active,0,LEO,USA,USA,Unknown,Unknown,Unknown,1 58006U 23153R   24232.48148320  .00001943  00000+0  15886-3 0  9993,2 58006  43.0009 245.5998 0001011 274.4042  85.6684 15.02543404 49845,15.02543404,0.0001011,LEO
58007,STARLINK-30527,2023,94.37,-1.0,+,43.0,Active,0,LEO,USA,USA,Unknown,Unknown,Unknown,1 58007U 23153S   24232.22976127  .00015034  00000+0  58292-3 0  9994,2 58007  43.0004 165.7186 0001499 260.7842  99.2839 15.25936127 50645,15.25936127,0.0001499,LEO
58008,STARLINK-30522,2023,95.84,-1.0,+,43.0,Active,0,LEO,USA,USA,Unknown,Unknown,Unknown,1 58008U 23153T   24232.55732772  .00003022  00000+0  23869-3 0  9993,2 58008  43.0023 270.4937 0001662 271.9245  88.1407 15.02536526 49569,15.02536526,0.0001662,LEO
58009,STARLINK-30486,2023,95.84,-1.0,+,43.0,Active,0,LEO,USA,USA,Unknown,Unknown,Unknown,1 58009U 23153U   24232.47087470  .00004897  00000+0  37747-3 0  9994,2 58009  43.0040 270.7046 0001323 264.6984  95.3707 15.02521156 49450,15.02521156,0.0001323,LEO
58010,STARLINK-30520,2023,95.84,-1.0,+,43.0,Active,0,LEO,USA,USA,Unknown,Unknown,Unknown,1 58010U 23153V   24232.39451607  .00000558  00000+0  56362-4 0  9999,2 58010  43.0033 271.8390 0001585 266.5760  93.4902 15.02537579 49431,15.02537579,0.0001585,LEO
58011,STARLINK-30497,2023,95.84,-1.0,+,43.0,Active,0,LEO,USA,USA,Unknown,Unknown,Unknown,1 58011U 23153W   24232.39118644  .00000023  00000+0  16806-4 0  9997,2 58011  43.0031 271.8165 0002053 270.8546  89.2061 15.02536616 49532,15.02536616,0.0002053,LEO
58012,STARLINK-30525,2023,95.84,-1.0,+,43.0,Active,0,LEO,USA,USA,Unknown,Unknown,Unknown,1 58012U 23153X   24232.38120829 -.00000787  00000+0 -43200-4 0  9992,2 58012  43.0008 271.7339 0000392 214.0844 145.9973 15.02526377 49539,15.02526377,3.92e-05,LEO
58013,KUIPER-P2,2023,93.87,-1.0,+,29.98,Active,0,LEO,USA,USA,Unknown,Unknown,Unknown,1 58013U 23154A   24232.04765044  .00037322  00000+0  10870-2 0  9999,2 58013  29.9752 126.0066 0011225  80.9375 279.2520 15.34066274 48622,15.34066274,0.0011225,LEO
58014,KUIPER-P1,2023,91.83,-1.0,+,29.97,Active,0,LEO,USA,USA,Unknown,Unknown,Unknown,1 58014U 23154B   24232.58334491  .00618958  00000+0  49284-2 0  9998,2 58014  29.9697 109.4942 0008292  98.1413 140.2155 15.68216512 48825,15.68216512,0.0008292,LEO
58016,THEOS-2 (T2V),2023,97.19,-1.0,+,97.9,Active,0,LEO,French Guiana,Thailand,Unknown,Unknown,Unknown,1 58016U 23155A   24232.56719677  .00003176  00000+0  41029-3 0  9992,2 58016  97.9038 302.1619 0001268  88.9139 271.2219 14.81642207 46712,14.81642207,0.0001268,LEO
58017,FORMOSAT-7R (TRITON),2023,96.61,-1.0,+,97.9,Active,0,LEO,French Guiana,Taiwan,Unknown,Unknown,Unknown,1 58017U 23155B   24232.57191887  .00005867  00000+0  60619-3 0  9996,2 58017  97.8967 306.4046 0003372  63.5363 296.6200 14.90516867 46959,14.90516867,0.0003372,LEO
58018,ANSER-FLW2,2023,95.61,-1.0,+,97.63,Active,0,LEO,French Guiana,Spain,Unknown,Unknown,Unknown,1 58018U 23155C   24232.61635502  .00011162  00000+0  76721-3 0  9995,2 58018  97.6256 301.4244 0001043 255.7416 104.3695 15.06105598 47329,15.06105598,0.0001043,LEO
58019,ANSER-FLW1,2023,95.59,-1.0,+,97.63,Active,0,LEO,French Guiana,Spain,Unknown,Unknown,Unknown,1 58019U 23155D   24232.61226232  .00043328  00000+0  29246-2 0  9990,2 58019  97.6339 301.5720 0007271 283.9435  76.0983 15.06440441 47329,15.06440441,0.0007271,LEO
